CCSDS_OMM_VERS = 2.0
CREATION_DATE  = 
ORIGINATOR     = 

OBJECT_NAME    = ATLAS CENTAUR R/B
OBJECT_ID      = 1972-065B
CENTER_NAME    = EARTH
REF_FRAME      = TEME
TIME_SYSTEM    = UTC
MEAN_ELEMENT_THEORY = SGP/SGP4

EPOCH          = 2026-01-25T04:17:24.235872
MEAN_MOTION    = 14.77546852
ECCENTRICITY   = .00338203
INCLINATION    = 34.9997
RA_OF_ASC_NODE = 200.7168
ARG_OF_PERICENTER = 2.7344
MEAN_ANOMALY   = 357.3537

EPHEMERIS_TYPE = 0
CLASSIFICATION_TYPE = U
NORAD_CAT_ID   = 6155
ELEMENT_SET_NO = 999
REV_AT_EPOCH   = 83482
BSTAR          = .28082684E-3
MEAN_MOTION_DOT = .2033E-4
MEAN_MOTION_DDOT = 0

CCSDS_OMM_VERS = 2.0
CREATION_DATE  = 
ORIGINATOR     = 

OBJECT_NAME    = SL-8 R/B
OBJECT_ID      = 1975-112B
CENTER_NAME    = EARTH
REF_FRAME      = TEME
TIME_SYSTEM    = UTC
MEAN_ELEMENT_THEORY = SGP/SGP4

EPOCH          = 2026-01-25T05:41:01.816512
MEAN_MOTION    = 14.38179941
ECCENTRICITY   = .00160451
INCLINATION    = 74.0608
RA_OF_ASC_NODE = 98.8514
ARG_OF_PERICENTER = 205.2292
MEAN_ANOMALY   = 154.8080

EPHEMERIS_TYPE = 0
CLASSIFICATION_TYPE = U
NORAD_CAT_ID   = 8459
ELEMENT_SET_NO = 999
REV_AT_EPOCH   = 62562
BSTAR          = .15880754E-3
MEAN_MOTION_DOT = .457E-5
MEAN_MOTION_DDOT = 0

CCSDS_OMM_VERS = 2.0
CREATION_DATE  = 
ORIGINATOR     = 

OBJECT_NAME    = SL-3 R/B
OBJECT_ID      = 1977-057B
CENTER_NAME    = EARTH
REF_FRAME      = TEME
TIME_SYSTEM    = UTC
MEAN_ELEMENT_THEORY = SGP/SGP4

EPOCH          = 2026-01-25T06:08:31.241760
MEAN_MOTION    = 15.44181533
ECCENTRICITY   = .00085718
INCLINATION    = 97.5717
RA_OF_ASC_NODE = 195.3247
ARG_OF_PERICENTER = 81.3555
MEAN_ANOMALY   = 278.8663

EPHEMERIS_TYPE = 0
CLASSIFICATION_TYPE = U
NORAD_CAT_ID   = 10114
ELEMENT_SET_NO = 999
REV_AT_EPOCH   = 66162
BSTAR          = .38693679E-3
MEAN_MOTION_DOT = .17692E-3
MEAN_MOTION_DDOT = 0

CCSDS_OMM_VERS = 2.0
CREATION_DATE  = 
ORIGINATOR     = 

OBJECT_NAME    = SEASAT 1
OBJECT_ID      = 1978-064A
CENTER_NAME    = EARTH
REF_FRAME      = TEME
TIME_SYSTEM    = UTC
MEAN_ELEMENT_THEORY = SGP/SGP4

EPOCH          = 2026-01-25T06:18:37.150272
MEAN_MOTION    = 14.46118677
ECCENTRICITY   = .00012616
INCLINATION    = 108.0171
RA_OF_ASC_NODE = 34.3611
ARG_OF_PERICENTER = 286.1493
MEAN_ANOMALY   = 73.9514

EPHEMERIS_TYPE = 0
CLASSIFICATION_TYPE = U
NORAD_CAT_ID   = 10967
ELEMENT_SET_NO = 999
REV_AT_EPOCH   = 50023
BSTAR          = .23153981E-3
MEAN_MOTION_DOT = .691E-5
MEAN_MOTION_DDOT = 0

CCSDS_OMM_VERS = 2.0
CREATION_DATE  = 
ORIGINATOR     = 

OBJECT_NAME    = SL-14 R/B
OBJECT_ID      = 1979-011B
CENTER_NAME    = EARTH
REF_FRAME      = TEME
TIME_SYSTEM    = UTC
MEAN_ELEMENT_THEORY = SGP/SGP4

EPOCH          = 2026-01-25T07:40:03.954144
MEAN_MOTION    = 14.91845317
ECCENTRICITY   = .00155772
INCLINATION    = 82.5262
RA_OF_ASC_NODE = 137.7151
ARG_OF_PERICENTER = 197.3039
MEAN_ANOMALY   = 162.7652

EPHEMERIS_TYPE = 0
CLASSIFICATION_TYPE = U
NORAD_CAT_ID   = 11267
ELEMENT_SET_NO = 999
REV_AT_EPOCH   = 52231
BSTAR          = .12128456E-3
MEAN_MOTION_DOT = .1252E-4
MEAN_MOTION_DDOT = 0

CCSDS_OMM_VERS = 2.0
CREATION_DATE  = 
ORIGINATOR     = 

OBJECT_NAME    = SL-8 R/B
OBJECT_ID      = 1979-089B
CENTER_NAME    = EARTH
REF_FRAME      = TEME
TIME_SYSTEM    = UTC
MEAN_ELEMENT_THEORY = SGP/SGP4

EPOCH          = 2026-01-25T02:49:59.341152
MEAN_MOTION    = 14.42319535
ECCENTRICITY   = .00159421
INCLINATION    = 74.0685
RA_OF_ASC_NODE = 171.6924
ARG_OF_PERICENTER = 350.9554
MEAN_ANOMALY   = 9.1313

EPHEMERIS_TYPE = 0
CLASSIFICATION_TYPE = U
NORAD_CAT_ID   = 11574
ELEMENT_SET_NO = 999
REV_AT_EPOCH   = 42982
BSTAR          = .19857243E-3
MEAN_MOTION_DOT = .63E-5
MEAN_MOTION_DDOT = 0

CCSDS_OMM_VERS = 2.0
CREATION_DATE  = 
ORIGINATOR     = 

OBJECT_NAME    = SL-14 R/B
OBJECT_ID      = 1980-005B
CENTER_NAME    = EARTH
REF_FRAME      = TEME
TIME_SYSTEM    = UTC
MEAN_ELEMENT_THEORY = SGP/SGP4

EPOCH          = 2026-01-25T07:17:49.522560
MEAN_MOTION    = 14.90862896
ECCENTRICITY   = .00145568
INCLINATION    = 82.5162
RA_OF_ASC_NODE = 348.3774
ARG_OF_PERICENTER = 312.6435
MEAN_ANOMALY   = 47.3556

EPHEMERIS_TYPE = 0
CLASSIFICATION_TYPE = U
NORAD_CAT_ID   = 11672
ELEMENT_SET_NO = 999
REV_AT_EPOCH   = 47002
BSTAR          = .12374392E-3
MEAN_MOTION_DOT = .1245E-4
MEAN_MOTION_DDOT = 0

CCSDS_OMM_VERS = 2.0
CREATION_DATE  = 
ORIGINATOR     = 

OBJECT_NAME    = SL-8 R/B
OBJECT_ID      = 1981-003B
CENTER_NAME    = EARTH
REF_FRAME      = TEME
TIME_SYSTEM    = UTC
MEAN_ELEMENT_THEORY = SGP/SGP4

EPOCH          = 2026-01-25T06:25:37.532928
MEAN_MOTION    = 15.09116382
ECCENTRICITY   = .02676974
INCLINATION    = 82.9391
RA_OF_ASC_NODE = 330.1248
ARG_OF_PERICENTER = 330.4788
MEAN_ANOMALY   = 28.1544

EPHEMERIS_TYPE = 0
CLASSIFICATION_TYPE = U
NORAD_CAT_ID   = 12139
ELEMENT_SET_NO = 999
REV_AT_EPOCH   = 30812
BSTAR          = .87758802E-3
MEAN_MOTION_DOT = .33067E-3
MEAN_MOTION_DDOT = 0

CCSDS_OMM_VERS = 2.0
CREATION_DATE  = 
ORIGINATOR     = 

OBJECT_NAME    = SL-3 R/B
OBJECT_ID      = 1981-046B
CENTER_NAME    = EARTH
REF_FRAME      = TEME
TIME_SYSTEM    = UTC
MEAN_ELEMENT_THEORY = SGP/SGP4

EPOCH          = 2026-01-25T06:56:49.802784
MEAN_MOTION    = 15.40728761
ECCENTRICITY   = .00196308
INCLINATION    = 81.2341
RA_OF_ASC_NODE = 341.7965
ARG_OF_PERICENTER = 164.7069
MEAN_ANOMALY   = 195.4771

EPHEMERIS_TYPE = 0
CLASSIFICATION_TYPE = U
NORAD_CAT_ID   = 12465
ELEMENT_SET_NO = 999
REV_AT_EPOCH   = 43174
BSTAR          = .43513666E-3
MEAN_MOTION_DOT = .17948E-3
MEAN_MOTION_DDOT = 0

CCSDS_OMM_VERS = 2.0
CREATION_DATE  = 
ORIGINATOR     = 

OBJECT_NAME    = SL-3 R/B
OBJECT_ID      = 1981-103B
CENTER_NAME    = EARTH
REF_FRAME      = TEME
TIME_SYSTEM    = UTC
MEAN_ELEMENT_THEORY = SGP/SGP4

EPOCH          = 2026-01-25T05:23:17.426400
MEAN_MOTION    = 15.20827835
ECCENTRICITY   = .00144396
INCLINATION    = 81.1573
RA_OF_ASC_NODE = 264.4089
ARG_OF_PERICENTER = 72.0843
MEAN_ANOMALY   = 288.1961

EPHEMERIS_TYPE = 0
CLASSIFICATION_TYPE = U
NORAD_CAT_ID   = 12904
ELEMENT_SET_NO = 999
REV_AT_EPOCH   = 96662
BSTAR          = .35064116E-3
MEAN_MOTION_DOT = .7782E-4
MEAN_MOTION_DDOT = 0

CCSDS_OMM_VERS = 2.0
CREATION_DATE  = 
ORIGINATOR     = 

OBJECT_NAME    = SL-3 R/B
OBJECT_ID      = 1982-013B
CENTER_NAME    = EARTH
REF_FRAME      = TEME
TIME_SYSTEM    = UTC
MEAN_ELEMENT_THEORY = SGP/SGP4

EPOCH          = 2026-01-25T06:02:07.253376
MEAN_MOTION    = 15.21519744
ECCENTRICITY   = .00222536
INCLINATION    = 81.1729
RA_OF_ASC_NODE = 211.6605
ARG_OF_PERICENTER = 328.3235
MEAN_ANOMALY   = 31.6656

EPHEMERIS_TYPE = 0
CLASSIFICATION_TYPE = U
NORAD_CAT_ID   = 13068
ELEMENT_SET_NO = 999
REV_AT_EPOCH   = 39774
BSTAR          = .30739268E-3
MEAN_MOTION_DOT = .6991E-4
MEAN_MOTION_DDOT = 0

CCSDS_OMM_VERS = 2.0
CREATION_DATE  = 
ORIGINATOR     = 

OBJECT_NAME    = SL-3 R/B
OBJECT_ID      = 1982-039B
CENTER_NAME    = EARTH
REF_FRAME      = TEME
TIME_SYSTEM    = UTC
MEAN_ELEMENT_THEORY = SGP/SGP4

EPOCH          = 2026-01-25T06:02:23.821440
MEAN_MOTION    = 15.09826589
ECCENTRICITY   = .00300427
INCLINATION    = 81.1648
RA_OF_ASC_NODE = 266.0202
ARG_OF_PERICENTER = 106.5760
MEAN_ANOMALY   = 253.8769

EPHEMERIS_TYPE = 0
CLASSIFICATION_TYPE = U
NORAD_CAT_ID   = 13154
ELEMENT_SET_NO = 999
REV_AT_EPOCH   = 37508
BSTAR          = .24469458E-3
MEAN_MOTION_DOT = .4021E-4
MEAN_MOTION_DDOT = 0

