ATLAS CENTAUR R/B       
1 06155U 72065B   26025.17875273  .00002033  00000+0  28083-3 0  9993
2 06155  34.9997 200.7168 0033820   2.7344 357.3537 14.77546852834827
SL-8 R/B                
1 08459U 75112B   26025.23682658  .00000457  00000+0  15881-3 0  9998
2 08459  74.0608  98.8514 0016045 205.2292 154.8080 14.38179941625620
SL-3 R/B                
1 10114U 77057B   26025.25591715  .00017692  00000+0  38694-3 0  9990
2 10114  97.5717 195.3247 0008571  81.3555 278.8663 15.44181533661620
SEASAT 1                
1 10967U 78064A   26025.26292998  .00000691  00000+0  23154-3 0  9993
2 10967 108.0171  34.3611 0001261 286.1493  73.9514 14.46118677500238
SL-14 R/B               
1 11267U 79011B   26025.31949021  .00001252  00000+0  12128-3 0  9995
2 11267  82.5262 137.7151 0015577 197.3039 162.7652 14.91845317522311
SL-8 R/B                
1 11574U 79089B   26025.11804793  .00000630  00000+0  19857-3 0  9990
2 11574  74.0685 171.6924 0015942 350.9554   9.1313 14.42319535429821
SL-14 R/B               
1 11672U 80005B   26025.30404540  .00001245  00000+0  12374-3 0  9996
2 11672  82.5162 348.3774 0014556 312.6435  47.3556 14.90862896470020
SL-8 R/B                
1 12139U 81003B   26025.26779552  .00033067  00000+0  87759-3 0  9993
2 12139  82.9391 330.1248 0267697 330.4788  28.1544 15.09116382308125
SL-3 R/B                
1 12465U 81046B   26025.28946531  .00017948  00000+0  43514-3 0  9998
2 12465  81.2341 341.7965 0019630 164.7069 195.4771 15.40728761431740
SL-3 R/B                
1 12904U 81103B   26025.22450725  .00007782  00000+0  35064-3 0  9995
2 12904  81.1573 264.4089 0014439  72.0843 288.1961 15.20827835966626
SL-3 R/B                
1 13068U 82013B   26025.25147284  .00006991  00000+0  30739-3 0  9999
2 13068  81.1729 211.6605 0022253 328.3235  31.6656 15.21519744397745
SL-3 R/B                
1 13154U 82039B   26025.25166460  .00004021  00000+0  24469-3 0  9995
2 13154  81.1648 266.0202 0030042 106.5760 253.8769 15.09826589375082
